[{"OBJECT_NAME":"EOSSAT-1","OBJECT_ID":"2023-001AW","EPOCH":"2026-03-09T17:40:07.010400","MEAN_MOTION":15.32339828,"ECCENTRICITY":0.00112629,"INCLINATION":97.3357,"RA_OF_ASC_NODE":130.2294,"ARG_OF_PERICENTER":110.3168,"MEAN_ANOMALY":249.9285,"EPHEMERIS_TYPE":0,"CLASSIFICATION_TYPE":"U","NORAD_CAT_ID":55053,"ELEMENT_SET_NO":999,"REV_AT_EPOCH":17668,"BSTAR":0.00024844399,"MEAN_MOTION_DOT":7.695e-5,"MEAN_MOTION_DDOT":0},{"OBJECT_NAME":"STARLINK-35108","OBJECT_ID":"2025-216E","EPOCH":"2026-03-09T21:28:32.742624","MEAN_MOTION":15.30211752,"ECCENTRICITY":0.00014695,"INCLINATION":53.158,"RA_OF_ASC_NODE":332.041,"ARG_OF_PERICENTER":114.6975,"MEAN_ANOMALY":245.4178,"EPHEMERIS_TYPE":0,"CLASSIFICATION_TYPE":"U","NORAD_CAT_ID":65738,"ELEMENT_SET_NO":999,"REV_AT_EPOCH":2662,"BSTAR":0.00083434508,"MEAN_MOTION_DOT":0.00024442,"MEAN_MOTION_DDOT":0}]
